start=new Date('2022-06-09T00:00:00.000Z').valueOf();
sats=[{"GP_ID":"205633962","SITE":"AFETR","CENTER_NAME":"EARTH","TLE_LINE2":"2 47401  53.0564  62.7888 0002069  52.4657 307.6520 15.06403707 76948","INCLINATION":"53.0564","OBJECT_TYPE":"PAYLOAD","EPHEMERIS_TYPE":"0","LAUNCH_DATE":"2021-01-20","MEAN_MOTION":"15.06403707","ECCENTRICITY":"0.00020690","PERIAPSIS":"545.769","MEAN_ANOMALY":"307.6520","NORAD_CAT_ID":"47401","TIME_SYSTEM":"UTC","MEAN_MOTION_DDOT":"0.0000000000000","ELEMENT_SET_NO":"999","SEMIMAJOR_AXIS":"6925.337","RCS_SIZE":"LARGE","EPOCH":"2022-06-08T11:15:59.952096","RA_OF_ASC_NODE":"62.7888","MEAN_MOTION_DOT":"-0.00000397","TLE_LINE1":"1 47401U 21005BE  22159.46944389 -.00000397  00000-0 -77298-5 0  9999","OBJECT_NAME":"STARLINK-2123","BSTAR":"-0.00000772980000","MEAN_ELEMENT_THEORY":"SGP4","APOAPSIS":"548.635","OBJECT_ID":"2021-005BE","DECAY_DATE":null,"REF_FRAME":"TEME","REV_AT_EPOCH":"7694","CLASSIFICATION_TYPE":"U","PERIOD":"95.592","ARG_OF_PERICENTER":"52.4657","FILE":"3485745","COUNTRY_CODE":"US"},{"OBJECT_TYPE":"PAYLOAD","INCLINATION":"53.0559","EPHEMERIS_TYPE":"0","LAUNCH_DATE":"2021-01-20","SITE":"AFETR","GP_ID":"205633712","TLE_LINE2":"2 47402  53.0559  62.9914 0001975  40.5345 319.5791 15.06398984 76933","CENTER_NAME":"EARTH","NORAD_CAT_ID":"47402","TIME_SYSTEM":"UTC","ECCENTRICITY":"0.00019750","MEAN_MOTION":"15.06398984","MEAN_ANOMALY":"319.5791","PERIAPSIS":"545.849","BSTAR":"-0.00002491300000","OBJECT_NAME":"STARLINK-2124","APOAPSIS":"548.584","MEAN_ELEMENT_THEORY":"SGP4","RCS_SIZE":"LARGE","SEMIMAJOR_AXIS":"6925.352","MEAN_MOTION_DOT":"-0.00000653","EPOCH":"2022-06-08T10:07:00.215328","RA_OF_ASC_NODE":"62.9914","ELEMENT_SET_NO":"999","MEAN_MOTION_DDOT":"0.0000000000000","TLE_LINE1":"1 47402U 21005BF  22159.42153027 -.00000653  00000-0 -24913-4 0  9997","CLASSIFICATION_TYPE":"U","COUNTRY_CODE":"US","FILE":"3485745","ARG_OF_PERICENTER":"40.5345","PERIOD":"95.592","OBJECT_ID":"2021-005BF","REV_AT_EPOCH":"7693","DECAY_DATE":null,"REF_FRAME":"TEME"},{"CLASSIFICATION_TYPE":"U","COUNTRY_CODE":"US","PERIOD":"95.593","ARG_OF_PERICENTER":"66.5828","FILE":"3485745","OBJECT_ID":"2021-005BG","REV_AT_EPOCH":"7693","REF_FRAME":"TEME","DECAY_DATE":null,"BSTAR":"-0.00008990000000","OBJECT_NAME":"STARLINK-2127","MEAN_ELEMENT_THEORY":"SGP4","APOAPSIS":"548.452","ELEMENT_SET_NO":"999","SEMIMAJOR_AXIS":"6925.381","RCS_SIZE":"LARGE","RA_OF_ASC_NODE":"62.9656","EPOCH":"2022-06-08T10:17:38.136768","MEAN_MOTION_DOT":"-0.00001620","MEAN_MOTION_DDOT":"0.0000000000000","TLE_LINE1":"1 47403U 21005BG  22159.42891362 -.00001620  00000-0 -89900-4 0  9991","NORAD_CAT_ID":"47403","TIME_SYSTEM":"UTC","ECCENTRICITY":"0.00017410","MEAN_MOTION":"15.06389341","MEAN_ANOMALY":"293.5344","PERIAPSIS":"546.041","OBJECT_TYPE":"PAYLOAD","INCLINATION":"53.0562","EPHEMERIS_TYPE":"0","LAUNCH_DATE":"2021-01-20","SITE":"AFETR","GP_ID":"205634963","TLE_LINE2":"2 47403  53.0562  62.9656 0001741  66.5828 293.5344 15.06389341 76938","CENTER_NAME":"EARTH"},{"ECCENTRICITY":"0.00021390","MEAN_MOTION":"15.06396681","PERIAPSIS":"545.742","MEAN_ANOMALY":"294.1989","NORAD_CAT_ID":"47404","TIME_SYSTEM":"UTC","SITE":"AFETR","GP_ID":"205634711","TLE_LINE2":"2 47404  53.0572  62.9817 0002139  65.9223 294.1989 15.06396681 76930","CENTER_NAME":"EARTH","OBJECT_TYPE":"PAYLOAD","INCLINATION":"53.0572","LAUNCH_DATE":"2021-01-20","EPHEMERIS_TYPE":"0","OBJECT_ID":"2021-005BH","REV_AT_EPOCH":"7693","DECAY_DATE":null,"REF_FRAME":"TEME","CLASSIFICATION_TYPE":"U","COUNTRY_CODE":"US","ARG_OF_PERICENTER":"65.9223","PERIOD":"95.592","FILE":"3485745","ELEMENT_SET_NO":"999","RCS_SIZE":"LARGE","SEMIMAJOR_AXIS":"6925.359","RA_OF_ASC_NODE":"62.9817","EPOCH":"2022-06-08T10:12:18.778176","MEAN_MOTION_DOT":"0.00000220","MEAN_MOTION_DDOT":"0.0000000000000","TLE_LINE1":"1 47404U 21005BH  22159.42521734  .00000220  00000-0  33689-4 0  9991","BSTAR":"0.00003368900000","OBJECT_NAME":"STARLINK-2128","MEAN_ELEMENT_THEORY":"SGP4","APOAPSIS":"548.705"},{"OBJECT_NAME":"STARLINK-2130","BSTAR":"0.00001808200000","MEAN_ELEMENT_THEORY":"SGP4","APOAPSIS":"548.719","MEAN_MOTION_DDOT":"0.0000000000000","ELEMENT_SET_NO":"999","MEAN_MOTION_DOT":"-0.00000012","RCS_SIZE":"LARGE","SEMIMAJOR_AXIS":"6925.347","RA_OF_ASC_NODE":"92.4509","EPOCH":"2022-06-08T12:58:10.548768","TLE_LINE1":"1 47405U 21005BJ  22159.54039987 -.00000012  00000-0  18082-4 0  9999","CLASSIFICATION_TYPE":"U","ARG_OF_PERICENTER":"55.6229","PERIOD":"95.592","FILE":"3485745","COUNTRY_CODE":"US","OBJECT_ID":"2021-005BJ","REF_FRAME":"TEME","DECAY_DATE":null,"REV_AT_EPOCH":"7652","INCLINATION":"53.0551","OBJECT_TYPE":"PAYLOAD","LAUNCH_DATE":"2021-01-20","EPHEMERIS_TYPE":"0","GP_ID":"205633462","SITE":"AFETR","CENTER_NAME":"EARTH","TLE_LINE2":"2 47405  53.0551  92.4509 0002176  55.6229 304.4965 15.06400637 76528","NORAD_CAT_ID":"47405","TIME_SYSTEM":"UTC","MEAN_MOTION":"15.06400637","ECCENTRICITY":"0.00021760","PERIAPSIS":"545.705","MEAN_ANOMALY":"304.4965"},{"NORAD_CAT_ID":"47406","TIME_SYSTEM":"UTC","ECCENTRICITY":"0.00014130","MEAN_MOTION":"15.06399491","PERIAPSIS":"546.237","MEAN_ANOMALY":"277.1117","OBJECT_TYPE":"PAYLOAD","INCLINATION":"53.0573","LAUNCH_DATE":"2021-01-20","EPHEMERIS_TYPE":"0","SITE":"AFETR","GP_ID":"205642574","TLE_LINE2":"2 47406  53.0573  62.9391 0001413  83.0033 277.1117 15.06399491 77548","CENTER_NAME":"EARTH","CLASSIFICATION_TYPE":"U","COUNTRY_CODE":"US","PERIOD":"95.592","ARG_OF_PERICENTER":"83.0033","FILE":"3486128","OBJECT_ID":"2021-005BK","REV_AT_EPOCH":"7754","REF_FRAME":"TEME","DECAY_DATE":null,"BSTAR":"0.00001222000000","OBJECT_NAME":"STARLINK-2133","MEAN_ELEMENT_THEORY":"SGP4","APOAPSIS":"548.194","ELEMENT_SET_NO":"999","SEMIMAJOR_AXIS":"6925.350","RCS_SIZE":"LARGE","RA_OF_ASC_NODE":"62.9391","EPOCH":"2022-06-08T10:28:14.349216","MEAN_MOTION_DOT":"-0.00000099","MEAN_MOTION_DDOT":"0.0000000000000","TLE_LINE1":"1 47406U 21005BK  22159.43627719 -.00000099  00000-0  12220-4 0  9997"},{"BSTAR":"0.00005381900000","OBJECT_NAME":"STARLINK-2134","MEAN_ELEMENT_THEORY":"SGP4","APOAPSIS":"548.499","ELEMENT_SET_NO":"999","EPOCH":"2022-06-08T10:38:51.770400","RCS_SIZE":"LARGE","SEMIMAJOR_AXIS":"6925.378","RA_OF_ASC_NODE":"62.8995","MEAN_MOTION_DOT":"0.00000520","MEAN_MOTION_DDOT":"0.0000000000000","TLE_LINE1":"1 47407U 21005BL  22159.44365475  .00000520  00000-0  53819-4 0  9994","CLASSIFICATION_TYPE":"U","COUNTRY_CODE":"US","ARG_OF_PERICENTER":"60.1407","PERIOD":"95.593","FILE":"3485745","OBJECT_ID":"2021-005BL","REV_AT_EPOCH":"7693","REF_FRAME":"TEME","DECAY_DATE":null,"OBJECT_TYPE":"PAYLOAD","INCLINATION":"53.0556","LAUNCH_DATE":"2021-01-20","EPHEMERIS_TYPE":"0","SITE":"AFETR","GP_ID":"205634463","TLE_LINE2":"2 47407  53.0556  62.8995 0001813  60.1407 299.9762 15.06390398 76931","CENTER_NAME":"EARTH","NORAD_CAT_ID":"47407","TIME_SYSTEM":"UTC","ECCENTRICITY":"0.00018130","MEAN_MOTION":"15.06390398","MEAN_ANOMALY":"299.9762","PERIAPSIS":"545.987"},{"ELEMENT_SET_NO":"999","RCS_SIZE":"LARGE","SEMIMAJOR_AXIS":"6925.343","EPOCH":"2022-06-08T17:54:04.673088","MEAN_MOTION_DOT":"0.00000978","RA_OF_ASC_NODE":"61.5486","MEAN_MOTION_DDOT":"0.0000000000000","TLE_LINE1":"1 47408U 21005BM  22159.74588742  .00000978  00000-0  84516-4 0  9997","BSTAR":"0.00008451600000","OBJECT_NAME":"STARLINK-2135","MEAN_ELEMENT_THEORY":"SGP4","APOAPSIS":"548.276","OBJECT_ID":"2021-005BM","REV_AT_EPOCH":"7759","REF_FRAME":"TEME","DECAY_DATE":null,"CLASSIFICATION_TYPE":"U","COUNTRY_CODE":"US","PERIOD":"95.592","ARG_OF_PERICENTER":"71.2297","FILE":"3486128","SITE":"AFETR","GP_ID":"205643074","TLE_LINE2":"2 47408  53.0558  61.5486 0001543  71.2297 288.8860 15.06401891 77595","CENTER_NAME":"EARTH","OBJECT_TYPE":"PAYLOAD","INCLINATION":"53.0558","LAUNCH_DATE":"2021-01-20","EPHEMERIS_TYPE":"0","ECCENTRICITY":"0.00015430","MEAN_MOTION":"15.06401891","PERIAPSIS":"546.139","MEAN_ANOMALY":"288.8860","NORAD_CAT_ID":"47408","TIME_SYSTEM":"UTC"},{"GP_ID":"205642687","SITE":"AFETR","CENTER_NAME":"EARTH","TLE_LINE2":"2 47548  53.0574  41.8166 0002216  61.8890 298.2323 15.06404370 75048","INCLINATION":"53.0574","OBJECT_TYPE":"PAYLOAD","EPHEMERIS_TYPE":"0","LAUNCH_DATE":"2021-02-04","MEAN_MOTION":"15.06404370","ECCENTRICITY":"0.00022160","PERIAPSIS":"545.666","MEAN_ANOMALY":"298.2323","NORAD_CAT_ID":"47548","TIME_SYSTEM":"UTC","MEAN_MOTION_DDOT":"0.0000000000000","MEAN_MOTION_DOT":"0.00001295","RCS_SIZE":"LARGE","SEMIMAJOR_AXIS":"6925.335","RA_OF_ASC_NODE":"41.8166","EPOCH":"2022-06-08T16:26:30.434208","ELEMENT_SET_NO":"999","TLE_LINE1":"1 47548U 21009A   22159.68507447  .00001295  00000-0  10584-3 0  9998","OBJECT_NAME":"STARLINK-1782","BSTAR":"0.00010584000000","APOAPSIS":"548.735","MEAN_ELEMENT_THEORY":"SGP4","OBJECT_ID":"2021-009A","DECAY_DATE":null,"REF_FRAME":"TEME","REV_AT_EPOCH":"7504","CLASSIFICATION_TYPE":"U","FILE":"3486134","PERIOD":"95.592","ARG_OF_PERICENTER":"61.8890","COUNTRY_CODE":"US"},{"TLE_LINE1":"1 47549U 21009B   22159.41600169  .00000522  00000-0  53943-4 0  9994","RA_OF_ASC_NODE":"43.0211","RCS_SIZE":"LARGE","SEMIMAJOR_AXIS":"6925.354","EPOCH":"2022-06-08T09:59:02.546016","MEAN_MOTION_DOT":"0.00000522","ELEMENT_SET_NO":"999","MEAN_MOTION_DDOT":"0.0000000000000","APOAPSIS":"548.336","MEAN_ELEMENT_THEORY":"SGP4","BSTAR":"0.00005394300000","OBJECT_NAME":"STARLINK-1806","REV_AT_EPOCH":"7440","REF_FRAME":"TEME","DECAY_DATE":null,"OBJECT_ID":"2021-009B","COUNTRY_CODE":"US","FILE":"3485745","ARG_OF_PERICENTER":"74.6065","PERIOD":"95.592","CLASSIFICATION_TYPE":"U","TLE_LINE2":"2 47549  53.0557  43.0211 0001612  74.6065 285.5102 15.06398136 74405","CENTER_NAME":"EARTH","SITE":"AFETR","GP_ID":"205633478","LAUNCH_DATE":"2021-02-04","EPHEMERIS_TYPE":"0","OBJECT_TYPE":"PAYLOAD","INCLINATION":"53.0557","PERIAPSIS":"546.103","MEAN_ANOMALY":"285.5102","ECCENTRICITY":"0.00016120","MEAN_MOTION":"15.06398136","TIME_SYSTEM":"UTC","NORAD_CAT_ID":"47549"}];
